HIMAWARI-8              
1 40267U 14060A   24246.95664569 -.00000286  00000+0  00000+0 0  9993
2 40267   0.0419 267.8156 0000905 284.6538 275.1496  1.00269323 36324
